[{"OBJECT_NAME":"TIANMU-1 07","OBJECT_ID":"2023-101A","EPOCH":"2026-03-06T13:47:20.454720","MEAN_MOTION":15.29118809,"ECCENTRICITY":0.00046097,"INCLINATION":97.2728,"RA_OF_ASC_NODE":118.5929,"ARG_OF_PERICENTER":142.4105,"MEAN_ANOMALY":217.7458,"EPHEMERIS_TYPE":0,"CLASSIFICATION_TYPE":"U","NORAD_CAT_ID":57399,"ELEMENT_SET_NO":999,"REV_AT_EPOCH":14596,"BSTAR":0.00029794732,"MEAN_MOTION_DOT":8.352e-5,"MEAN_MOTION_DDOT":0},{"OBJECT_NAME":"STARLINK-32772","OBJECT_ID":"2025-034E","EPOCH":"2026-03-09T22:16:01.868160","MEAN_MOTION":15.30212099,"ECCENTRICITY":9.635e-5,"INCLINATION":53.1583,"RA_OF_ASC_NODE":256.9941,"ARG_OF_PERICENTER":72.0793,"MEAN_ANOMALY":288.0313,"EPHEMERIS_TYPE":0,"CLASSIFICATION_TYPE":"U","NORAD_CAT_ID":63033,"ELEMENT_SET_NO":999,"REV_AT_EPOCH":5912,"BSTAR":0.00077263281,"MEAN_MOTION_DOT":0.00022602,"MEAN_MOTION_DDOT":0}]
