TIANMU-1 07             
1 57399U 23101A   26065.57454230  .00008352  00000+0  29795-3 0  9991
2 57399  97.2728 118.5929 0004609 142.4105 217.7458 15.29118809145964
STARLINK-32772          
1 63033U 25034E   26068.92779940  .00022602  00000+0  77263-3 0  9997
2 63033  53.1583 256.9941 0000963  72.0793 288.0313 15.30212099 59128
